{
  "norad_id": 62500,
  "name": "STARLINK-32685",
  "history": [
    {
      "epoch": "2026-03-28T14:51:24.770880",
      "apogee_km": 483.9479761374914,
      "perigee_km": 482.09134714485117,
      "latitude_deg": 34.99872945554008,
      "longitude_deg": 129.4275231999345,
      "semi_major_axis_km": 6861.156661641171,
      "eccentricity": 0.0001353,
      "inclination_deg": 43.0002,
      "raan_deg": 182.3173,
      "arg_perigee_deg": 290.327,
      "mean_anomaly_deg": 69.7436,
      "mean_motion_rev_day": 15.2758983
    }
  ]
}